API VERSION: 1.2
API SOURCE: NASA/JPL Horizons API



*******************************************************************************
Ephemeris / API_USER Sat Mar 28 14:02:32 2026 Pasadena, USA      / Horizons
*******************************************************************************
Target body name: Jupiter (599)                   {source: jup365_merged}
Center body name: Sun (10)                        {source: jup365_merged}
Center-site name: BODY CENTER
*******************************************************************************
Start time      : A.D. 2034-Jun-30 21:24:28.8000 TDB
Stop  time      : A.D. 2034-Jul-02 21:24:28.8000 TDB
Step-size       : 60 minutes
*******************************************************************************
Center geodetic : 0.0, 0.0, 0.0                   {E-lon(deg),Lat(deg),Alt(km)}
Center cylindric: 0.0, 0.0, 0.0                   {E-lon(deg),Dxy(km),Dz(km)}
Center radii    : 695700.0, 695700.0, 695700.0 km {Equator_a, b, pole_c}
Output units    : AU-D
Calendar mode   : Mixed Julian/Gregorian
Output type     : GEOMETRIC cartesian states
Output format   : 3 (position, velocity, LT, range, range-rate)
Reference frame : Ecliptic of J2000.0
*******************************************************************************
            JDTDB,            Calendar Date (TDB),                      X,                      Y,                      Z,                     VX,                     VY,                     VZ,                     LT,                     RG,                     RR,
**************************************************************************************************************************************************************************************************************************************************************************
$$SOE
2464145.642000000, A.D. 2034-Jul-02 03:24:28.8000,  4.958486478165192E+00,  2.305735463572572E-03, -1.109405220003075E-01, -9.435185285430276E-05,  7.905602006363237E-03, -3.075745371020076E-05,  2.864499965455762E-02,  4.959727943142122E+00, -8.996499743658094E-05,
2464145.683666667, A.D. 2034-Jul-02 04:24:28.8000,  4.958482535378741E+00,  2.635134772337142E-03, -1.109418033703345E-01, -9.490125745732616E-05,  7.905563350238707E-03, -3.074835260483066E-05,  2.864497800177119E-02,  4.959724194078368E+00, -8.998942434193066E-05,
2464145.725333333, A.D. 2034-Jul-02 05:24:28.8000,  4.958478569789747E+00,  2.964532291183054E-03, -1.109430843665047E-01, -9.544615213998741E-05,  7.905516187295203E-03, -3.073950186482579E-05,  2.864495634362153E-02,  4.959720444086001E+00, -9.000934867666865E-05,
2464145.767000000, A.D. 2034-Jul-02 06:24:28.8000,  4.958474581613316E+00,  3.293927679142696E-03, -1.109443649983708E-01, -9.598524841158751E-05,  7.905461196695419E-03, -3.073085837249634E-05,  2.864493468134884E-02,  4.959716693379754E+00, -9.002348501770254E-05,
2464145.808666667, A.D. 2034-Jul-02 07:24:28.8000,  4.958470571115961E+00,  3.623320627422565E-03, -1.109456452735799E-01, -9.651737140615728E-05,  7.905399240625267E-03, -3.072237393116929E-05,  2.864491301648953E-02,  4.959712942225647E+00, -9.003066128698680E-05,
2464145.850333333, A.D. 2034-Jul-02 08:24:28.8000,  4.958466538610359E+00,  3.952710866630673E-03, -1.109469251976835E-01, -9.704148407292502E-05,  7.905331344646665E-03, -3.071399632612055E-05,  2.864489135084600E-02,  4.959709190935756E+00, -9.002984285561023E-05,
2464145.892000000, A.D. 2034-Jul-02 09:24:28.8000,  4.958462484449159E+00,  4.282098173125756E-03, -1.109482047739929E-01, -9.755670796544998E-05,  7.905258675306292E-03, -3.070567043790755E-05,  2.864486968645097E-02,  4.959705439862034E+00, -9.002015325780769E-05,
2464145.933666667, A.D. 2034-Jul-02 10:24:28.8000,  4.958458409017998E+00,  4.611482374387526E-03, -1.109494840034819E-01, -9.806234045774595E-05,  7.905182515641309E-03, -3.069733938159583E-05,  2.864484802552725E-02,  4.959701689389354E+00, -9.000089134469511E-05,
2464145.975333333, A.D. 2034-Jul-02 11:24:28.8000,  4.958454312727889E+00,  4.940863353333014E-03, -1.109507628847373E-01, -9.855786832766651E-05,  7.905104239169332E-03, -3.068894564887421E-05,  2.864482637044396E-02,  4.959697939927913E+00, -8.997154481904017E-05,
2464146.017000000, A.D. 2034-Jul-02 12:24:28.8000,  4.958450196007100E+00,  5.270241051526249E-03, -1.109520414139563E-01, -9.904297773262662E-05,  7.905025282862906E-03, -3.068043223452385E-05,  2.864480472366969E-02,  4.959694191905133E+00, -8.993180017680835E-05,
2464146.058666667, A.D. 2034-Jul-02 13:24:28.8000,  4.958446059292709E+00,  5.599615471247758E-03, -1.109533195849905E-01, -9.951756065458817E-05,  7.904947119502204E-03, -3.067174373358791E-05,  2.864478308772391E-02,  4.959690445757249E+00, -8.988154913277888E-05,
2464146.100333333, A.D. 2034-Jul-02 14:24:28.8000,  4.958441903021943E+00,  5.928986676404562E-03, -1.109545973894347E-01, -9.998171790741096E-05,  7.904871229690752E-03, -3.066282740016346E-05,  2.864476146512712E-02,  4.959686701920671E+00, -8.982089162349154E-05,
2464146.142000000, A.D. 2034-Jul-02 15:24:28.8000,  4.958437727623483E+00,  6.258354792270120E-03, -1.109558748167591E-01, -1.004357587811517E-04,  7.904799073729206E-03, -3.065363416221906E-05,  2.864473985835069E-02,  4.959682960823302E+00, -8.975013546214158E-05,
2464146.183666667, A.D. 2034-Jul-02 16:24:28.8000,  4.958433533508836E+00,  6.587720004052459E-03, -1.109571518544827E-01, -1.008801973498883E-04,  7.904732063492612E-03, -3.064411958831646E-05,  2.864471826976726E-02,  4.959679222875954E+00, -8.966979267196158E-05,
2464146.225333333, A.D. 2034-Jul-02 17:24:28.8000,  4.958429321063937E+00,  6.917082554292827E-03, -1.109584284883856E-01, -1.013157454018929E-04,  7.904671534467606E-03, -3.063424480111845E-05,  2.864469670160235E-02,  4.959675488463963E+00, -8.958057245681853E-05,
2464146.267000000, A.D. 2034-Jul-02 18:24:28.8000,  4.958425090641126E+00,  7.246442739106840E-03, -1.109597047027588E-01, -1.017433018779327E-04,  7.904618718191774E-03, -3.062397732840133E-05,  2.864467515588810E-02,  4.959671757939184E+00, -8.948337069459459E-05,
2464146.308666667, A.D. 2034-Jul-02 19:24:28.8000,  4.958420842551627E+00,  7.575800903292085E-03, -1.109609804806873E-01, -1.021639386441977E-04,  7.904574715502469E-03, -3.061329187525599E-05,  2.864465363441999E-02,  4.959668031612494E+00, -8.937925577941735E-05,
2464146.350333333, A.D. 2034-Jul-02 20:24:28.8000,  4.958416577058704E+00,  7.905157434348716E-03, -1.109622558043635E-01, -1.025788824042201E-04,  7.904540471234641E-03, -3.060217099174641E-05,  2.864463213871739E-02,  4.959664309746961E+00, -8.926945061626212E-05,
2464146.392000000, A.D. 2034-Jul-02 21:24:28.8000,  4.958412294371664E+00,  8.234512755491356E-03, -1.109635306554255E-01, -1.029894925961747E-04,  7.904516751272498E-03, -3.059060560033104E-05,  2.864461066998896E-02,  4.959660592551864E+00, -8.915531061286010E-05,
